{
    "links": {
        "self": "http://www.neowsapp.com/rest/v1/neo/3255170?api_key=iIulBulltgU6a56xZRHN4H3l9WmuAYTsLGpBGhQ2"
    },
    "id": "3255170",
    "neo_reference_id": "3255170",
    "name": "(2004 SS26)",
    "designation": "2004 SS26",
    "nasa_jpl_url": "http://ssd.jpl.nasa.gov/sbdb.cgi?sstr=3255170",
    "absolute_magnitude_h": 23.1,
    "estimated_diameter": {
        "kilometers": {
            "estimated_diameter_min": 0.063760979,
            "estimated_diameter_max": 0.1425738833
        },
        "meters": {
            "estimated_diameter_min": 63.7609789875,
            "estimated_diameter_max": 142.5738833281
        },
        "miles": {
            "estimated_diameter_min": 0.0396192233,
            "estimated_diameter_max": 0.0885912765
        },
        "feet": {
            "estimated_diameter_min": 209.1895703015,
            "estimated_diameter_max": 467.7620993781
        }
    },
    "is_potentially_hazardous_asteroid": false,
    "close_approach_data": [
        {
            "close_approach_date": "2004-09-23",
            "close_approach_date_full": "2004-Sep-23 11:25",
            "epoch_date_close_approach": 1095938700000,
            "relative_velocity": {
                "kilometers_per_second": "20.1603013579",
                "kilometers_per_hour": "72577.0848885448",
                "miles_per_hour": "45096.5781075516"
            },
            "miss_distance": {
                "astronomical": "0.0405843426",
                "lunar": "15.7873092714",
                "kilometers": "6071331.208310262",
                "miles": "3772550.2773631356"
            },
            "orbiting_body": "Earth"
        }
    ],
    "orbital_data": {
        "orbit_id": "7",
        "orbit_determination_date": "2017-04-06 09:12:12",
        "first_observation_date": "2004-09-22",
        "last_observation_date": "2004-09-24",
        "data_arc_in_days": 2,
        "observations_used": 32,
        "orbit_uncertainty": "9",
        "minimum_orbit_intersection": ".033209",
        "jupiter_tisserand_invariant": "4.112",
        "epoch_osculation": "2453272.5",
        "eccentricity": ".4411379994527127",
        "semi_major_axis": "1.589797229569951",
        "inclination": "32.25683231920888",
        "ascending_node_longitude": "180.3747268021866",
        "orbital_period": "732.1684836019227",
        "perihelion_distance": ".8884772601819976",
        "perihelion_argument": "238.6211310372002",
        "aphelion_distance": "2.291117198957904",
        "perihelion_time": "2453316.435310036572",
        "mean_anomaly": "338.3974427096955",
        "mean_motion": ".4916901069395533",
        "equinox": "J2000",
        "orbit_class": {
            "orbit_class_type": "APO",
            "orbit_class_description": "Near-Earth asteroid orbits which cross the Earth’s orbit similar to that of 1862 Apollo",
            "orbit_class_range": "a (semi-major axis) > 1.0 AU; q (perihelion) < 1.017 AU"
        }
    },
    "is_sentry_object": false
}